[{"OBJECT_NAME":"STARLINK-4047","OBJECT_ID":"2022-086B","EPOCH":"2026-03-09T14:37:24.079008","MEAN_MOTION":15.08828696,"ECCENTRICITY":0.0001161,"INCLINATION":53.2168,"RA_OF_ASC_NODE":204.1723,"ARG_OF_PERICENTER":81.9547,"MEAN_ANOMALY":278.1577,"EPHEMERIS_TYPE":0,"CLASSIFICATION_TYPE":"U","NORAD_CAT_ID":53243,"ELEMENT_SET_NO":999,"REV_AT_EPOCH":20125,"BSTAR":-0.00018519,"MEAN_MOTION_DOT":-3.233e-5,"MEAN_MOTION_DDOT":0},{"OBJECT_NAME":"THOR ABLESTAR DEB","OBJECT_ID":"1961-015EX","EPOCH":"2026-03-09T22:58:31.837152","MEAN_MOTION":15.04262729,"ECCENTRICITY":0.00191468,"INCLINATION":67.4961,"RA_OF_ASC_NODE":12.7011,"ARG_OF_PERICENTER":32.2919,"MEAN_ANOMALY":327.9391,"EPHEMERIS_TYPE":0,"CLASSIFICATION_TYPE":"U","NORAD_CAT_ID":461,"ELEMENT_SET_NO":999,"REV_AT_EPOCH":37086,"BSTAR":0.0020469071,"MEAN_MOTION_DOT":0.00028661,"MEAN_MOTION_DDOT":0}]
